{
  "type": "FeatureCollection",
  "features": [
    {
      "type": "Feature",
      "properties": {
        "norad_id": 40128,
        "name": "GSAT0201 (GALILEO 5)",
        "group": "gnss",
        "lat": 20.748310208763783,
        "lon": 81.82386661353245,
        "alt_km": 17187.62223150169,
        "timestamp": "2025-12-14T05:42:18.700860+00:00",
        "meta_object_name": "GSAT0201 (GALILEO 5)",
        "meta_object_id": "2014-050A",
        "meta_epoch": "2025-12-09T03:42:58.517280",
        "meta_mean_motion": 1.8551953,
        "meta_eccentricity": 0.164755,
        "meta_inclination": 49.0809,
        "meta_ra_of_asc_node": 281.2097,
        "meta_arg_of_pericenter": 172.1436,
        "meta_mean_anomaly": 190.8359,
        "meta_ephemeris_type": 0,
        "meta_classification_type": "U",
        "meta_norad_cat_id": 40128,
        "meta_element_set_no": 999,
        "meta_rev_at_epoch": 7479,
        "meta_bstar": 0,
        "meta_mean_motion_dot": -7.1e-07,
        "meta_mean_motion_ddot": 0,
        "tle_line1": "1 40128U 14050A   25343.15484395 -.00000071  00000+0  00000+0 0  9998",
        "tle_line2": "2 40128  49.0809 281.2097 1647550 172.1436 190.8359  1.85519530 74797"
      },
      "geometry": {
        "type": "Point",
        "coordinates": [
          81.82386661353245,
          20.748310208763783
        ]
      }
    },
    {
      "type": "Feature",
      "properties": {
        "norad_id": 40129,
        "name": "GSAT0202 (GALILEO 6)",
        "group": "gnss",
        "lat": -8.87512327840832,
        "lon": -87.70210850293041,
        "alt_km": 26195.390783918836,
        "timestamp": "2025-12-14T05:42:18.700872+00:00",
        "meta_object_name": "GSAT0202 (GALILEO 6)",
        "meta_object_id": "2014-050B",
        "meta_epoch": "2025-12-11T13:36:31.827456",
        "meta_mean_motion": 1.85520366,
        "meta_eccentricity": 0.16485158,
        "meta_inclination": 49.0938,
        "meta_ra_of_asc_node": 280.195,
        "meta_arg_of_pericenter": 172.988,
        "meta_mean_anomaly": 189.677,
        "meta_ephemeris_type": 0,
        "meta_classification_type": "U",
        "meta_norad_cat_id": 40129,
        "meta_element_set_no": 999,
        "meta_rev_at_epoch": 7700,
        "meta_bstar": 0,
        "meta_mean_motion_dot": -9.2e-07,
        "meta_mean_motion_ddot": 0,
        "tle_line1": "1 40129U 14050B   25345.56703504 -.00000092  00000+0  00000+0 0  9995",
        "tle_line2": "2 40129  49.0938 280.1950 1648515 172.9880 189.6770  1.85520366 77009"
      },
      "geometry": {
        "type": "Point",
        "coordinates": [
          -87.70210850293041,
          -8.87512327840832
        ]
      }
    },
    {
      "type": "Feature",
      "properties": {
        "norad_id": 40269,
        "name": "IRNSS-1C",
        "group": "gnss",
        "lat": 2.1253617896292134,
        "lon": -108.14650401168507,
        "alt_km": 35855.5793625703,
        "timestamp": "2025-12-14T05:42:18.700884+00:00",
        "meta_object_name": "IRNSS-1C",
        "meta_object_id": "2014-061A",
        "meta_epoch": "2025-12-12T20:37:44.961024",
        "meta_mean_motion": 1.00275251,
        "meta_eccentricity": 0.00181348,
        "meta_inclination": 6.0413,
        "meta_ra_of_asc_node": 92.6203,
        "meta_arg_of_pericenter": 2.1122,
        "meta_mean_anomaly": 19.4179,
        "meta_ephemeris_type": 0,
        "meta_classification_type": "U",
        "meta_norad_cat_id": 40269,
        "meta_element_set_no": 999,
        "meta_rev_at_epoch": 4082,
        "meta_bstar": 0,
        "meta_mean_motion_dot": -1.5e-06,
        "meta_mean_motion_ddot": 0,
        "tle_line1": "1 40269U 14061A   25346.85954816 -.00000150  00000+0  00000+0 0  9994",
        "tle_line2": "2 40269   6.0413  92.6203 0018134   2.1122  19.4179  1.00275251 40822"
      },
      "geometry": {
        "type": "Point",
        "coordinates": [
          -108.14650401168507,
          2.1253617896292134
        ]
      }
    },
    {
      "type": "Feature",
      "properties": {
        "norad_id": 40294,
        "name": "GPS BIIF-8  (PRN 03)",
        "group": "gnss",
        "lat": -20.98735784955579,
        "lon": -127.39446507715498,
        "alt_km": 20301.185736678697,
        "timestamp": "2025-12-14T05:42:18.700895+00:00",
        "meta_object_name": "GPS BIIF-8  (PRN 03)",
        "meta_object_id": "2014-068A",
        "meta_epoch": "2025-12-13T10:57:14.379552",
        "meta_mean_motion": 2.00564944,
        "meta_eccentricity": 0.00607799,
        "meta_inclination": 56.8584,
        "meta_ra_of_asc_node": 38.1182,
        "meta_arg_of_pericenter": 69.1634,
        "meta_mean_anomaly": 291.5378,
        "meta_ephemeris_type": 0,
        "meta_classification_type": "U",
        "meta_norad_cat_id": 40294,
        "meta_element_set_no": 999,
        "meta_rev_at_epoch": 8148,
        "meta_bstar": 0,
        "meta_mean_motion_dot": -9.5e-07,
        "meta_mean_motion_ddot": 0,
        "tle_line1": "1 40294U 14068A   25347.45641643 -.00000095  00000+0  00000+0 0  9995",
        "tle_line2": "2 40294  56.8584  38.1182 0060779  69.1634 291.5378  2.00564944 81488"
      },
      "geometry": {
        "type": "Point",
        "coordinates": [
          -127.39446507715498,
          -20.98735784955579
        ]
      }
    },
    {
      "type": "Feature",
      "properties": {
        "norad_id": 40315,
        "name": "COSMOS 2501 (702K)",
        "group": "gnss",
        "lat": -40.021968363806636,
        "lon": 41.41323950767312,
        "alt_km": 19086.75860000636,
        "timestamp": "2025-12-14T05:42:18.700909+00:00",
        "meta_object_name": "COSMOS 2501 (702K)",
        "meta_object_id": "2014-075A",
        "meta_epoch": "2025-12-12T01:35:26.425248",
        "meta_mean_motion": 2.13101306,
        "meta_eccentricity": 0.0020213,
        "meta_inclination": 63.6138,
        "meta_ra_of_asc_node": 196.8484,
        "meta_arg_of_pericenter": 204.6963,
        "meta_mean_anomaly": 155.2753,
        "meta_ephemeris_type": 0,
        "meta_classification_type": "U",
        "meta_norad_cat_id": 40315,
        "meta_element_set_no": 999,
        "meta_rev_at_epoch": 8586,
        "meta_bstar": 0,
        "meta_mean_motion_dot": 6.5e-07,
        "meta_mean_motion_ddot": 0,
        "tle_line1": "1 40315U 14075A   25346.06627807  .00000065  00000+0  00000+0 0  9995",
        "tle_line2": "2 40315  63.6138 196.8484 0020213 204.6963 155.2753  2.13101306 85862"
      },
      "geometry": {
        "type": "Point",
        "coordinates": [
          41.41323950767312,
          -40.021968363806636
        ]
      }
    },
    {
      "type": "Feature",
      "properties": {
        "norad_id": 40534,
        "name": "GPS BIIF-9  (PRN 26)",
        "group": "gnss",
        "lat": 47.8136187004219,
        "lon": -23.81447233515055,
        "alt_km": 20093.853385300285,
        "timestamp": "2025-12-14T05:42:18.700920+00:00",
        "meta_object_name": "GPS BIIF-9  (PRN 26)",
        "meta_object_id": "2015-013A",
        "meta_epoch": "2025-12-13T14:04:23.865312",
        "meta_mean_motion": 2.00562579,
        "meta_eccentricity": 0.01070971,
        "meta_inclination": 53.1976,
        "meta_ra_of_asc_node": 211.8551,
        "meta_arg_of_pericenter": 38.5041,
        "meta_mean_anomaly": 322.3346,
        "meta_ephemeris_type": 0,
        "meta_classification_type": "U",
        "meta_norad_cat_id": 40534,
        "meta_element_set_no": 999,
        "meta_rev_at_epoch": 7810,
        "meta_bstar": 0,
        "meta_mean_motion_dot": 4.8e-07,
        "meta_mean_motion_ddot": 0,
        "tle_line1": "1 40534U 15013A   25347.58638733  .00000048  00000+0  00000+0 0  9990",
        "tle_line2": "2 40534  53.1976 211.8551 0107097  38.5041 322.3346  2.00562579 78102"
      },
      "geometry": {
        "type": "Point",
        "coordinates": [
          -23.81447233515055,
          47.8136187004219
        ]
      }
    },
    {
      "type": "Feature",
      "properties": {
        "norad_id": 40544,
        "name": "GSAT0203 (GALILEO 7)",
        "group": "gnss",
        "lat": -44.295027052110825,
        "lon": -153.73219346627212,
        "alt_km": 23211.504709712666,
        "timestamp": "2025-12-14T05:42:18.700931+00:00",
        "meta_object_name": "GSAT0203 (GALILEO 7)",
        "meta_object_id": "2015-017A",
        "meta_epoch": "2025-12-13T06:22:25.500288",
        "meta_mean_motion": 1.70476024,
        "meta_eccentricity": 0.00064981,
        "meta_inclination": 56.8461,
        "meta_ra_of_asc_node": 346.6655,
        "meta_arg_of_pericenter": 272.4956,
        "meta_mean_anomaly": 87.4484,
        "meta_ephemeris_type": 0,
        "meta_classification_type": "U",
        "meta_norad_cat_id": 40544,
        "meta_element_set_no": 999,
        "meta_rev_at_epoch": 6603,
        "meta_bstar": 0,
        "meta_mean_motion_dot": -8.7e-07,
        "meta_mean_motion_ddot": 0,
        "tle_line1": "1 40544U 15017A   25347.26557292 -.00000087  00000+0  00000+0 0  9994",
        "tle_line2": "2 40544  56.8461 346.6655 0006498 272.4956  87.4484  1.70476024 66037"
      },
      "geometry": {
        "type": "Point",
        "coordinates": [
          -153.73219346627212,
          -44.295027052110825
        ]
      }
    }
  ]
}